COSMOS 2058             
1 20465U 90010A   26167.47368580  .00003598  00000+0  20772-3 0  9995
2 20465  82.4679 310.0580 0009260   3.3263 356.8027 15.12010172957165
SL-14 R/B               
1 20466U 90010B   26167.49343561  .00000311  00000+0  34774-4 0  9998
2 20466  82.5016 174.5964 0019154 338.6420  21.3993 14.83645818943139
SL-14 R/B               
1 20511U 90018B   26167.60634608  .00000316  00000+0  36547-4 0  9990
2 20511  82.5210 130.6505 0017394 123.4849 236.8030 14.82215806937237
HST                     
1 20580U 90037B   26167.16527473  .00005381  00000+0  16841-3 0  9990
2 20580  28.4719  87.5586 0001852 131.7056 228.3698 15.30736864788415
SL-16 R/B               
1 20625U 90046B   26167.52402271  .00000137  00000+0  95441-4 0  9996
2 20625  70.9999  90.3409 0013377 162.7522 197.4058 14.15026407862371
COSMOS 2084             
1 20663U 90055A   26167.59672473  .00001755  00000+0  13314-3 0  9993
2 20663  62.7910 358.1061 0005588 278.1086  81.9380 15.06114213951217
SL-6 R/B(2)             
1 20666U 90055D   26167.58390692  .00001289  00000+0  10600-3 0  9992
2 20666  62.7824 277.4295 0040560   5.0589 355.0912 15.04001397953067
SL-8 R/B                
1 20775U 90078B   26167.45749525  .00021099  00000+0  59449-3 0  9992
2 20775  82.9007 162.3042 0351138  40.9180 321.7830 14.92289084824016
SL-8 R/B                
1 21088U 91006B   26167.57733743  .00000053  00000+0  37994-4 0  9999
2 21088  82.9424  96.4874 0023668 116.1783  56.3861 13.77505817777688
OKEAN-3                 
1 21397U 91039A   26167.60684199  .00002376  00000+0  16380-3 0  9997
2 21397  82.5158 240.9439 0014137   0.2626 359.8606 15.05321254879915
COSMOS 2151             
1 21422U 91042A   26167.59290317  .00001387  00000+0  10792-3 0  9995
2 21422  82.4960 348.2546 0013823  85.8188 274.4615 15.00436846878020
SL-14 R/B               
1 21423U 91042B   26167.61275028  .00000297  00000+0  34617-4 0  9993
2 21423  82.4927 127.4342 0015419 276.9382  83.0078 14.81902160867724
ERS-1                   
1 21574U 91050A   26167.60875190  .00000243  00000+0  92379-4 0  9994
2 21574  98.7798 188.2926 0030707 268.7760  90.9909 14.39517498829969
ARIANE 40 R/B           
1 21610U 91050F   26167.56362571  .00000232  00000+0  81801-4 0  9990
2 21610  98.1876 216.0048 0004232 122.8958 237.2640 14.42956768833255
INTERCOSMOS 25          
1 21819U 91086A   26167.53404639  .00000678  00000+0  13522-3 0  9997
2 21819  82.6053 250.2052 1484040 263.8044  79.2566 12.12194783508669
SL-8 R/B                
1 21876U 92008B   26167.62938277  .00000135  00000+0  12369-3 0  9991
2 21876  82.9262 194.2023 0033804 216.3013 266.9867 13.75976816723021
SL-8 R/B                
1 21938U 92020B   26167.49489862  .00000072  00000+0  58555-4 0  9998
2 21938  82.9306  80.3716 0029776  24.4738 149.2424 13.75548755714713
USA 81                  
1 21949U 92023A   26167.43657509  .00000152  00000+0  48679-4 0  9997
2 21949  85.0075  74.4407 0002756  85.1501 275.0007 14.32398003108922
COSMOS 2219             
1 22219U 92076A   26167.41250820  .00000257  00000+0  15928-3 0  9995
2 22219  71.0578 171.6913 0016563  45.4147 314.8324 14.14098523732330
SL-16 R/B               
1 22220U 92076B   26167.60720499  .00000177  00000+0  11191-3 0  9991
2 22220  71.0005 340.0029 0014648 299.4074 126.3105 14.16872002735845
COSMOS 2221             
1 22236U 92080A   26167.53724681  .00001173  00000+0  10073-3 0  9997
2 22236  82.5031 184.3874 0013216 214.5561 145.4804 14.96531580795579
SL-16 R/B               
1 22285U 92093B   26167.39440691 -.00000303  00000+0 -13061-3 0  9991
2 22285  71.0197 157.0557 0004002 189.9480 170.1564 14.15461601727123
COSMOS 2228             
1 22286U 92094A   26167.55315871  .00001748  00000+0  14710-3 0  9996
2 22286  82.5174 142.6501 0016955 334.6022  25.4365 14.97584599790859
SL-16 R/B               
1 22566U 93016B   26167.58643989  .00000281  00000+0  16855-3 0  9992
2 22566  71.0085   7.4694 0010229 184.3575 175.7461 14.15313897716165
COSMOS 2242             
1 22626U 93024A   26167.51231327  .00001385  00000+0  11819-3 0  9991
2 22626  82.5180 172.1886 0015414 338.6839  21.3739 14.96901488795176
SL-16 R/B               
1 22803U 93059B   26167.43120832 -.00000019  00000+0  14333-4 0  9994
2 22803  70.9887 162.8979 0015179  55.1510 305.1038 14.17248282693522
ARIANE 40 R/B           
1 22830U 93061H   26167.15797426  .00000165  00000+0  76324-4 0  9994
2 22830  98.4819 234.0363 0010516 359.2641   0.8526 14.32907611708202
COSMOS 2278             
1 23087U 94023A   26167.61041042  .00000103  00000+0  78452-4 0  9991
2 23087  71.0549 328.1315 0010620 243.9411 116.0618 14.14398013658796
SL-16 R/B               
1 23088U 94023B   26167.54174500  .00000280  00000+0  16940-3 0  9999
2 23088  70.9994 223.2870 0002791 187.1392 172.9692 14.15024921660079
SL-16 R/B               
1 23343U 94074B   26167.61601453  .00000327  00000+0  50332-4 0  9995
2 23343  97.6991 194.3608 0005124 256.0337 217.0075 14.79501902701870
