OBJECT_NAME,OBJECT_ID,EPOCH,MEAN_MOTION,ECCENTRICITY,INCLINATION,RA_OF_ASC_NODE,ARG_OF_PERICENTER,MEAN_ANOMALY,EPHEMERIS_TYPE,CLASSIFICATION_TYPE,NORAD_CAT_ID,ELEMENT_SET_NO,REV_AT_EPOCH,BSTAR,MEAN_MOTION_DOT,MEAN_MOTION_DDOT
COSMOS 2058,1990-010A,2026-06-16T11:22:06.453120,15.12010172,.00092604,82.4679,310.0580,3.3263,356.8027,0,U,20465,999,95716,.20772337E-3,.3598E-4,0
SL-14 R/B,1990-010B,2026-06-16T11:50:32.836704,14.83645818,.00191548,82.5016,174.5964,338.6420,21.3993,0,U,20466,999,94313,.3477359E-4,.311E-5,0
SL-14 R/B,1990-018B,2026-06-16T14:33:08.301312,14.82215806,.0017394,82.5210,130.6505,123.4849,236.8030,0,U,20511,999,93723,.365471E-4,.316E-5,0
HST,1990-037B,2026-06-16T03:57:59.736672,15.30736864,.00018526,28.4719,87.5586,131.7056,228.3698,0,U,20580,999,78841,.168413E-3,.5381E-4,0
SL-16 R/B,1990-046B,2026-06-16T12:34:35.562144,14.15026407,.00133775,70.9999,90.3409,162.7522,197.4058,0,U,20625,999,86237,.95440799E-4,.137E-5,0
COSMOS 2084,1990-055A,2026-06-16T14:19:17.016672,15.06114213,.00055885,62.7910,358.1061,278.1086,81.9380,0,U,20663,999,95121,.13314267E-3,.1755E-4,0
SL-6 R/B(2),1990-055D,2026-06-16T14:00:49.557888,15.04001397,.00405608,62.7824,277.4295,5.0589,355.0912,0,U,20666,999,95306,.10599672E-3,.1289E-4,0
SL-8 R/B,1990-078B,2026-06-16T10:58:47.589600,14.92289084,.03511383,82.9007,162.3042,40.9180,321.7830,0,U,20775,999,82401,.59448623E-3,.21099E-3,0
SL-8 R/B,1991-006B,2026-06-16T13:51:21.953952,13.77505817,.00236684,82.9424,96.4874,116.1783,56.3861,0,U,21088,999,77768,.37993515E-4,.53E-6,0
OKEAN-3,1991-039A,2026-06-16T14:33:51.147936,15.05321254,.00141376,82.5158,240.9439,0.2626,359.8606,0,U,21397,999,87991,.16379513E-3,.2376E-4,0
COSMOS 2151,1991-042A,2026-06-16T14:13:46.833888,15.00436846,.00138234,82.4960,348.2546,85.8188,274.4615,0,U,21422,999,87802,.10792464E-3,.1387E-4,0
SL-14 R/B,1991-042B,2026-06-16T14:42:21.624192,14.81902160,.00154198,82.4927,127.4342,276.9382,83.0078,0,U,21423,999,86772,.34616656E-4,.297E-5,0
ERS-1,1991-050A,2026-06-16T14:36:36.164160,14.39517498,.00307079,98.7798,188.2926,268.7760,90.9909,0,U,21574,999,82996,.92379446E-4,.243E-5,0
ARIANE 40 R/B,1991-050F,2026-06-16T13:31:37.261344,14.42956768,.00042322,98.1876,216.0048,122.8958,237.2640,0,U,21610,999,83325,.81800946E-4,.232E-5,0
INTERCOSMOS 25,1991-086A,2026-06-16T12:49:01.608096,12.12194783,.14840401,82.6053,250.2052,263.8044,79.2566,0,U,21819,999,50866,.13521628E-3,.678E-5,0
SL-8 R/B,1992-008B,2026-06-16T15:06:18.671328,13.75976816,.00338046,82.9262,194.2023,216.3013,266.9867,0,U,21876,999,72302,.1236917E-3,.135E-5,0
SL-8 R/B,1992-020B,2026-06-16T11:52:39.240768,13.75548755,.0029776,82.9306,80.3716,24.4738,149.2424,0,U,21938,999,71471,.58554722E-4,.72E-6,0
USA 81,1992-023A,2026-06-16T10:28:40.087776,14.32398003,.00027565,85.0075,74.4407,85.1501,275.0007,0,U,21949,999,10892,.48678852E-4,.152E-5,0
COSMOS 2219,1992-076A,2026-06-16T09:54:00.708480,14.14098523,.00165639,71.0578,171.6913,45.4147,314.8324,0,U,22219,999,73233,.15927895E-3,.257E-5,0
SL-16 R/B,1992-076B,2026-06-16T14:34:22.511136,14.16872002,.0014648,71.0005,340.0029,299.4074,126.3105,0,U,22220,999,73584,.11190908E-3,.177E-5,0
COSMOS 2221,1992-080A,2026-06-16T12:53:38.124384,14.96531580,.00132162,82.5031,184.3874,214.5561,145.4804,0,U,22236,999,79557,.10072661E-3,.1173E-4,0
SL-16 R/B,1992-093B,2026-06-16T09:27:56.757024,14.15461601,.00040029,71.0197,157.0557,189.9480,170.1564,0,U,22285,999,72712,-.13061037E-3,-.303E-5,0
COSMOS 2228,1992-094A,2026-06-16T13:16:32.912544,14.97584599,.00169552,82.5174,142.6501,334.6022,25.4365,0,U,22286,999,79085,.14710408E-3,.1748E-4,0
SL-16 R/B,1993-016B,2026-06-16T14:04:28.406496,14.15313897,.0010229,71.0085,7.4694,184.3575,175.7461,0,U,22566,999,71616,.16855454E-3,.281E-5,0
COSMOS 2242,1993-024A,2026-06-16T12:17:43.866528,14.96901488,.00154148,82.5180,172.1886,338.6839,21.3739,0,U,22626,999,79517,.11819111E-3,.1385E-4,0
SL-16 R/B,1993-059B,2026-06-16T10:20:56.398848,14.17248282,.00151795,70.9887,162.8979,55.1510,305.1038,0,U,22803,999,69352,.14333467E-4,-.19E-6,0
ARIANE 40 R/B,1993-061H,2026-06-16T03:47:28.976064,14.32907611,.00105166,98.4819,234.0363,359.2641,0.8526,0,U,22830,999,70820,.76323813E-4,.165E-5,0
COSMOS 2278,1994-023A,2026-06-16T14:38:59.460288,14.14398013,.001062,71.0549,328.1315,243.9411,116.0618,0,U,23087,999,65879,.7845159E-4,.103E-5,0
SL-16 R/B,1994-023B,2026-06-16T13:00:06.768000,14.15024921,.00027917,70.9994,223.2870,187.1392,172.9692,0,U,23088,999,66007,.169404E-3,.28E-5,0
SL-16 R/B,1994-074B,2026-06-16T14:47:03.655392,14.79501902,.00051243,97.6991,194.3608,256.0337,217.0075,0,U,23343,999,70187,.50332427E-4,.327E-5,0
